[{"OBJECT_NAME":"STARLINK-2491","OBJECT_ID":"2021-027BJ","EPOCH":"2026-03-09T13:59:29.224032","MEAN_MOTION":15.30224895,"ECCENTRICITY":0.0001646,"INCLINATION":53.1618,"RA_OF_ASC_NODE":165.9297,"ARG_OF_PERICENTER":49.2729,"MEAN_ANOMALY":310.8414,"EPHEMERIS_TYPE":0,"CLASSIFICATION_TYPE":"U","NORAD_CAT_ID":48148,"ELEMENT_SET_NO":999,"REV_AT_EPOCH":27248,"BSTAR":0.00035873,"MEAN_MOTION_DOT":0.00010288,"MEAN_MOTION_DDOT":0},{"OBJECT_NAME":"FENGYUN 1C DEB","OBJECT_ID":"1999-025AQG","EPOCH":"2026-03-09T10:43:06.043872","MEAN_MOTION":15.25746961,"ECCENTRICITY":0.00178142,"INCLINATION":98.9311,"RA_OF_ASC_NODE":250.2123,"ARG_OF_PERICENTER":328.3876,"MEAN_ANOMALY":31.6286,"EPHEMERIS_TYPE":0,"CLASSIFICATION_TYPE":"U","NORAD_CAT_ID":30674,"ELEMENT_SET_NO":999,"REV_AT_EPOCH":98658,"BSTAR":0.015201752,"MEAN_MOTION_DOT":0.00411052,"MEAN_MOTION_DDOT":0}]
